ONEWEB-0395             
1 50475U 21132G   25132.99048821  .00000184  00000+0  48252-3 0  9990
2 50475  87.8812 100.8552 0002356  87.4836 272.6561 13.11414964164532
ONEWEB-0396             
1 50476U 21132H   25132.84300490  .00000021  00000+0  19963-4 0  9996
2 50476  87.9157  55.0173 0002102  76.2225 283.9141 13.18684259168876
ONEWEB-0397             
1 50477U 21132J   25132.85722956  .00000048  00000+0  89646-4 0  9997
2 50477  87.9154  55.0158 0001981  73.6030 286.5320 13.18684273168858
ONEWEB-0398             
1 50478U 21132K   25133.18716465  .00000060  00000+0  13209-3 0  9998
2 50478  87.8812 100.7819 0002191  96.2859 263.8518 13.11418666164469
ONEWEB-0399             
1 50479U 21132L   25132.86840412 -.00000349  00000+0 -10219-2 0  9992
2 50479  87.8814 100.8680 0002168  75.2723 284.8645 13.11416727163133
ONEWEB-0400             
1 50480U 21132M   25132.83668308  .00000042  00000+0  74942-4 0  9996
2 50480  87.9152  55.0113 0001973  85.2386 274.8971 13.18688266168842
ONEWEB-0401             
1 50481U 21132N   25132.80348116 -.00000338  00000+0 -89047-3 0  9997
2 50481  87.9157  55.0107 0001864  73.0845 287.0491 13.18685996168845
ONEWEB-0402             
1 50482U 21132P   25132.84457332  .00000011  00000+0 -44878-5 0  9995
2 50482  87.9153  55.0003 0001706  60.7502 299.3800 13.18689308168879
